{"type": "FeatureCollection", "features": [ {"type": "Feature", "properties": {"norad_id": 41335, "name": "SENTINEL-3A", "group": "resource", "lat": 25.731669372119384, "lon": -133.90717879133544, "alt_km": 801.4255121153692, "timestamp": "2025-12-02T17:49:11.682985+00:00", "meta": {"OBJECT_NAME": "SENTINEL-3A", "OBJECT_ID": "2016-011A", "EPOCH": "2025-12-02T12:03:06.935040", "MEAN_MOTION": 14.26740177, "ECCENTRICITY": 0.0001002, "INCLINATION": 98.6221, "RA_OF_ASC_NODE": 41.6626, "ARG_OF_PERICENTER": 91.2559, "MEAN_ANOMALY": 268.8736, "EPHEMERIS_TYPE": 0, "CLASSIFICATION_TYPE": "U", "NORAD_CAT_ID": 41335, "ELEMENT_SET_NO": 999, "REV_AT_EPOCH": 51001, "BSTAR": 0.00010467, "MEAN_MOTION_DOT": 2.1e-06, "MEAN_MOTION_DDOT": 0}, "tle": {"line1": "1 41335U 16011A   25336.50216360  .00000210  00000+0  10467-3 0  9990", "line2": "2 41335  98.6221  41.6626 0001002  91.2559 268.8736 14.26740177510011"}}, "geometry": {"type": "Point", "coordinates": [-133.90717879133544, 25.731669372119384]}}, {"type": "Feature", "properties": {"norad_id": 41556, "name": "ZIYUAN 3-2 (ZY 3-2)", "group": "resource", "lat": 73.37376741032445, "lon": -103.10213772188442, "alt_km": 503.5361607005252, "timestamp": "2025-12-02T17:49:11.682995+00:00", "meta": {"OBJECT_NAME": "ZIYUAN 3-2 (ZY 3-2)", "OBJECT_ID": "2016-033A", "EPOCH": "2025-12-02T12:37:26.393088", "MEAN_MOTION": 15.21267181, "ECCENTRICITY": 0.0012433, "INCLINATION": 97.4061, "RA_OF_ASC_NODE": 50.8612, "ARG_OF_PERICENTER": 289.0473, "MEAN_ANOMALY": 70.9416, "EPHEMERIS_TYPE": 0, "CLASSIFICATION_TYPE": "U", "NORAD_CAT_ID": 41556, "ELEMENT_SET_NO": 999, "REV_AT_EPOCH": 52808, "BSTAR": 0.00039924, "MEAN_MOTION_DOT": 8.874e-05, "MEAN_MOTION_DDOT": 0}, "tle": {"line1": "1 41556U 16033A   25336.52599992  .00008874  00000+0  39924-3 0  9999", "line2": "2 41556  97.4061  50.8612 0012433 289.0473  70.9416 15.21267181528082"}}, "geometry": {"type": "Point", "coordinates": [-103.10213772188442, 73.37376741032445]}}, {"type": "Feature", "properties": {"norad_id": 41599, "name": "CARTOSAT-2C", "group": "resource", "lat": 52.256166004421445, "lon": -136.13563317235904, "alt_km": 495.93570432522756, "timestamp": "2025-12-02T17:49:11.683005+00:00", "meta": {"OBJECT_NAME": "CARTOSAT-2C", "OBJECT_ID": "2016-040A", "EPOCH": "2025-12-02T12:31:17.844384", "MEAN_MOTION": 15.19347728, "ECCENTRICITY": 0.0011508, "INCLINATION": 97.478, "RA_OF_ASC_NODE": 33.8764, "ARG_OF_PERICENTER": 100.567, "MEAN_ANOMALY": 259.6861, "EPHEMERIS_TYPE": 0, "CLASSIFICATION_TYPE": "U", "NORAD_CAT_ID": 41599, "ELEMENT_SET_NO": 999, "REV_AT_EPOCH": 52385, "BSTAR": 3.188e-05, "MEAN_MOTION_DOT": 6.06e-06, "MEAN_MOTION_DDOT": 0}, "tle": {"line1": "1 41599U 16040A   25336.52173431  .00000606  00000+0  31880-4 0  9999", "line2": "2 41599  97.4780  33.8764 0011508 100.5670 259.6861 15.19347728523857"}}, "geometry": {"type": "Point", "coordinates": [-136.13563317235904, 52.256166004421445]}}, {"type": "Feature", "properties": {"norad_id": 41601, "name": "SKYSAT-C1", "group": "resource", "lat": 65.88153225985515, "lon": -1.5708843799029035, "alt_km": 460.48509735614425, "timestamp": "2025-12-02T17:49:11.683016+00:00", "meta": {"OBJECT_NAME": "SKYSAT-C1", "OBJECT_ID": "2016-040C", "EPOCH": "2025-12-02T01:51:22.944960", "MEAN_MOTION": 15.32287703, "ECCENTRICITY": 0.00034131, "INCLINATION": 96.9847, "RA_OF_ASC_NODE": 13.6943, "ARG_OF_PERICENTER": 41.9438, "MEAN_ANOMALY": 318.2066, "EPHEMERIS_TYPE": 0, "CLASSIFICATION_TYPE": "U", "NORAD_CAT_ID": 41601, "ELEMENT_SET_NO": 999, "REV_AT_EPOCH": 52764, "BSTAR": 0.00034358842, "MEAN_MOTION_DOT": 0.00010645, "MEAN_MOTION_DDOT": 0}, "tle": {"line1": "1 41601U 16040C   25336.07734890  .00010645  00000+0  34359-3 0  9992", "line2": "2 41601  96.9847  13.6943 0003413  41.9438 318.2066 15.32287703527641"}}, "geometry": {"type": "Point", "coordinates": [-1.5708843799029035, 65.88153225985515]}}, {"type": "Feature", "properties": {"norad_id": 41603, "name": "LAPAN-A3", "group": "resource", "lat": -64.04338591543635, "lon": 139.73680739469637, "alt_km": 483.1637228811678, "timestamp": "2025-12-02T17:49:11.683026+00:00", "meta": {"OBJECT_NAME": "LAPAN-A3", "OBJECT_ID": "2016-040E", "EPOCH": "2025-12-02T13:37:00.628032", "MEAN_MOTION": 15.31425512, "ECCENTRICITY": 0.0010951, "INCLINATION": 97.1423, "RA_OF_ASC_NODE": 334.4953, "ARG_OF_PERICENTER": 11.1557, "MEAN_ANOMALY": 348.9926, "EPHEMERIS_TYPE": 0, "CLASSIFICATION_TYPE": "U", "NORAD_CAT_ID": 41603, "ELEMENT_SET_NO": 999, "REV_AT_EPOCH": 52470, "BSTAR": 0.00016888, "MEAN_MOTION_DOT": 5.06e-05, "MEAN_MOTION_DDOT": 0}, "tle": {"line1": "1 41603U 16040E   25336.56736838  .00005060  00000+0  16888-3 0  9994", "line2": "2 41603  97.1423 334.4953 0010951  11.1557 348.9926 15.31425512524707"}}, "geometry": {"type": "Point", "coordinates": [139.73680739469637, -64.04338591543635]}}, {"type": "Feature", "properties": {"norad_id": 41604, "name": "BIROS", "group": "resource", "lat": -30.564579882538368, "lon": -176.39875393479073, "alt_km": 319.28759760336743, "timestamp": "2025-12-02T17:49:11.683037+00:00", "meta": {"OBJECT_NAME": "BIROS", "OBJECT_ID": "2016-040F", "EPOCH": "2025-12-02T07:50:45.170016", "MEAN_MOTION": 15.85502902, "ECCENTRICITY": 0.0002525, "INCLINATION": 97.0713, "RA_OF_ASC_NODE": 7.3756, "ARG_OF_PERICENTER": 175.1949, "MEAN_ANOMALY": 184.9346, "EPHEMERIS_TYPE": 0, "CLASSIFICATION_TYPE": "U", "NORAD_CAT_ID": 41604, "ELEMENT_SET_NO": 999, "REV_AT_EPOCH": 52707, "BSTAR": 0.00067496, "MEAN_MOTION_DOT": 0.0016384, "MEAN_MOTION_DDOT": 0}, "tle": {"line1": "1 41604U 16040F   25336.32691169  .00163840  00000+0  67496-3 0  9998", "line2": "2 41604  97.0713   7.3756 0002525 175.1949 184.9346 15.85502902527075"}}, "geometry": {"type": "Point", "coordinates": [-176.39875393479073, -30.564579882538368]}}, {"type": "Feature", "properties": {"norad_id": 41727, "name": "GAOFEN-3", "group": "resource", "lat": -10.263786625403444, "lon": -15.985261386696678, "alt_km": 755.2065316357248, "timestamp": "2025-12-02T17:49:11.683046+00:00", "meta": {"OBJECT_NAME": "GAOFEN-3", "OBJECT_ID": "2016-049A", "EPOCH": "2025-12-02T12:52:21.587808", "MEAN_MOTION": 14.42209634, "ECCENTRICITY": 0.0001695, "INCLINATION": 98.4044, "RA_OF_ASC_NODE": 342.2777, "ARG_OF_PERICENTER": 71.3217, "MEAN_ANOMALY": 288.8157, "EPHEMERIS_TYPE": 0, "CLASSIFICATION_TYPE": "U", "NORAD_CAT_ID": 41727, "ELEMENT_SET_NO": 999, "REV_AT_EPOCH": 49030, "BSTAR": 5.2956e-05, "MEAN_MOTION_DOT": 1.31e-06, "MEAN_MOTION_DDOT": 0}, "tle": {"line1": "1 41727U 16049A   25336.53636097  .00000131  00000+0  52956-4 0  9994", "line2": "2 41727  98.4044 342.2777 0001695  71.3217 288.8157 14.42209634490306"}}, "geometry": {"type": "Point", "coordinates": [-15.985261386696678, -10.263786625403444]}}, {"type": "Feature", "properties": {"norad_id": 41771, "name": "SKYSAT-C4", "group": "resource", "lat": 17.539744046616434, "lon": 0.21393782309900725, "alt_km": 441.3637939129803, "timestamp": "2025-12-02T17:49:11.683057+00:00", "meta": {"OBJECT_NAME": "SKYSAT-C4", "OBJECT_ID": "2016-058B", "EPOCH": "2025-12-02T08:23:51.372096", "MEAN_MOTION": 15.41794235, "ECCENTRICITY": 6.79e-05, "INCLINATION": 96.939, "RA_OF_ASC_NODE": 2.0466, "ARG_OF_PERICENTER": 109.7993, "MEAN_ANOMALY": 250.3328, "EPHEMERIS_TYPE": 0, "CLASSIFICATION_TYPE": "U", "NORAD_CAT_ID": 41771, "ELEMENT_SET_NO": 999, "REV_AT_EPOCH": 51507, "BSTAR": 0.00041184, "MEAN_MOTION_DOT": 0.00017372, "MEAN_MOTION_DDOT": 0}, "tle": {"line1": "1 41771U 16058B   25336.34990014  .00017372  00000+0  41184-3 0  9999", "line2": "2 41771  96.9390   2.0466 0000679 109.7993 250.3328 15.41794235515078"}}, "geometry": {"type": "Point", "coordinates": [0.21393782309900725, 17.539744046616434]}}, {"type": "Feature", "properties": {"norad_id": 41772, "name": "SKYSAT-C5", "group": "resource", "lat": 7.07216515184517, "lon": -158.22289750654508, "alt_km": 460.6376446241866, "timestamp": "2025-12-02T17:49:11.683067+00:00", "meta": {"OBJECT_NAME": "SKYSAT-C5", "OBJECT_ID": "2016-058C", "EPOCH": "2025-12-02T09:14:57.684768", "MEAN_MOTION": 15.35361151, "ECCENTRICITY": 0.0002912, "INCLINATION": 97.0796, "RA_OF_ASC_NODE": 20.5505, "ARG_OF_PERICENTER": 122.4171, "MEAN_ANOMALY": 237.7356, "EPHEMERIS_TYPE": 0, "CLASSIFICATION_TYPE": "U", "NORAD_CAT_ID": 41772, "ELEMENT_SET_NO": 999, "REV_AT_EPOCH": 51357, "BSTAR": 0.0016477, "MEAN_MOTION_DOT": 0.00056871, "MEAN_MOTION_DDOT": 0}, "tle": {"line1": "1 41772U 16058C   25336.38538987  .00056871  00000+0  16477-2 0  9994", "line2": "2 41772  97.0796  20.5505 0002912 122.4171 237.7356 15.35361151513575"}}, "geometry": {"type": "Point", "coordinates": [-158.22289750654508, 7.07216515184517]}}, {"type": "Feature", "properties": {"norad_id": 41773, "name": "SKYSAT-C2", "group": "resource", "lat": 59.3802237226308, "lon": -166.25649450327975, "alt_km": 447.8342650098466, "timestamp": "2025-12-02T17:49:11.683077+00:00", "meta": {"OBJECT_NAME": "SKYSAT-C2", "OBJECT_ID": "2016-058D", "EPOCH": "2025-12-02T07:55:30.892224", "MEAN_MOTION": 15.36906729, "ECCENTRICITY": 0.0005123, "INCLINATION": 97.0375, "RA_OF_ASC_NODE": 1.3012, "ARG_OF_PERICENTER": 60.3148, "MEAN_ANOMALY": 299.8607, "EPHEMERIS_TYPE": 0, "CLASSIFICATION_TYPE": "U", "NORAD_CAT_ID": 41773, "ELEMENT_SET_NO": 999, "REV_AT_EPOCH": 51476, "BSTAR": 0.0003708, "MEAN_MOTION_DOT": 0.00013317, "MEAN_MOTION_DDOT": 0}, "tle": {"line1": "1 41773U 16058D   25336.33021866  .00013317  00000+0  37080-3 0  9995", "line2": "2 41773  97.0375   1.3012 0005123  60.3148 299.8607 15.36906729514767"}}, "geometry": {"type": "Point", "coordinates": [-166.25649450327975, 59.3802237226308]}}]}